GLOBALSTAR M045         
1 25676U 99019A   24139.59501909 -.00000031  00000+0  55512-3 0  9996
2 25676  51.9990 349.9174 0001082 116.8968 278.3321 12.27037010144950
GLOBALSTAR M019         
1 25677U 99019B   24139.61966946  .00000036  00000+0  13120-2 0  9998
2 25677  51.9874  92.4500 0000618 266.9012 264.1051 12.13857330137221
GLOBALSTAR M044         
1 25678U 99019C   24139.33876194 -.00000042  00000+0  58338-3 0  9992
2 25678  51.9993 355.1976 0006375   5.1134 166.0292 11.90233088124308
GLOBALSTAR M042         
1 25679U 99019D   24139.61454366 -.00000049  00000+0  40632-3 0  9992
2 25679  52.0016  84.8194 0002517 203.1777 327.1091 12.22061897137014
GLOBALSTAR M025         
1 25770U 99031A   24139.32764455 -.00000058  00000+0  28770-3 0  9998
2 25770  51.9844 353.9871 0001243 175.7504 355.7686 11.22550709437364
GLOBALSTAR M049         
1 25771U 99031B   24139.31730522 -.00000035  00000+0  10483-2 0  9992
2 25771  51.9913   8.9300 0003433  71.6221 288.4949 11.12108583 73491
GLOBALSTAR M047         
1 25772U 99031C   24139.41298697 -.00000065  00000+0  12963-3 0  9995
2 25772  51.9864  43.3960 0016208 307.0372  52.8951 11.31920573426400
GLOBALSTAR M052         
1 25773U 99031D   24139.36549498 -.00000055  00000+0  37630-3 0  9995
2 25773  51.9833 123.0463 0002738 245.0323 265.4056 11.15051022434460
